{
  "type": "FeatureCollection",
  "features": [
    {
      "type": "Feature",
      "properties": {
        "norad_id": 66387,
        "name": "STARLINK-35661",
        "group": "last-30-days",
        "lat": -18.702511888951385,
        "lon": 134.70942105221386,
        "alt_km": 450.35017655594675,
        "timestamp": "2025-12-05T04:52:14.140927+00:00",
        "meta_object_name": "STARLINK-35661",
        "meta_object_id": "2025-257H",
        "meta_epoch": "2025-12-04T18:00:02.000160",
        "meta_mean_motion": 15.39536451,
        "meta_eccentricity": 8.17e-05,
        "meta_inclination": 53.1602,
        "meta_ra_of_asc_node": 302.1416,
        "meta_arg_of_pericenter": 83.1409,
        "meta_mean_anomaly": 128.6411,
        "meta_ephemeris_type": 0,
        "meta_classification_type": "U",
        "meta_norad_cat_id": 66387,
        "meta_element_set_no": 999,
        "meta_rev_at_epoch": 521,
        "meta_bstar": 0.003432,
        "meta_mean_motion_dot": 0.00139027,
        "meta_mean_motion_ddot": 0,
        "tle_line1": "1 66387U 25257H   25338.75002315  .00139027  00000+0  34320-2 0  9990",
        "tle_line2": "2 66387  53.1602 302.1416 0000817  83.1409 128.6411 15.39536451  5210"
      },
      "geometry": {
        "type": "Point",
        "coordinates": [
          134.70942105221386,
          -18.702511888951385
        ]
      }
    },
    {
      "type": "Feature",
      "properties": {
        "norad_id": 66388,
        "name": "STARLINK-35647",
        "group": "last-30-days",
        "lat": -36.23090953972952,
        "lon": 153.2797373844199,
        "alt_km": 452.41088168090664,
        "timestamp": "2025-12-05T04:52:14.140936+00:00",
        "meta_object_name": "STARLINK-35647",
        "meta_object_id": "2025-257J",
        "meta_epoch": "2025-12-04T18:00:02.000160",
        "meta_mean_motion": 15.39633477,
        "meta_eccentricity": 0.000162,
        "meta_inclination": 53.1603,
        "meta_ra_of_asc_node": 302.0937,
        "meta_arg_of_pericenter": 87.9401,
        "meta_mean_anomaly": 147.8518,
        "meta_ephemeris_type": 0,
        "meta_classification_type": "U",
        "meta_norad_cat_id": 66388,
        "meta_element_set_no": 999,
        "meta_rev_at_epoch": 521,
        "meta_bstar": -0.0017982,
        "meta_mean_motion_dot": -0.00071688,
        "meta_mean_motion_ddot": 0,
        "tle_line1": "1 66388U 25257J   25338.75002315 -.00071688  00000+0 -17982-2 0  9996",
        "tle_line2": "2 66388  53.1603 302.0937 0001620  87.9401 147.8518 15.39633477  5213"
      },
      "geometry": {
        "type": "Point",
        "coordinates": [
          153.2797373844199,
          -36.23090953972952
        ]
      }
    },
    {
      "type": "Feature",
      "properties": {
        "norad_id": 66389,
        "name": "STARLINK-35694",
        "group": "last-30-days",
        "lat": -50.355624095494626,
        "lon": -175.2942856935073,
        "alt_km": 448.20138825788854,
        "timestamp": "2025-12-05T04:52:14.140946+00:00",
        "meta_object_name": "STARLINK-35694",
        "meta_object_id": "2025-257K",
        "meta_epoch": "2025-12-04T18:00:02.000160",
        "meta_mean_motion": 15.43187963,
        "meta_eccentricity": 0.0001334,
        "meta_inclination": 53.1599,
        "meta_ra_of_asc_node": 302.0486,
        "meta_arg_of_pericenter": 98.5313,
        "meta_mean_anomaly": 159.7056,
        "meta_ephemeris_type": 0,
        "meta_classification_type": "U",
        "meta_norad_cat_id": 66389,
        "meta_element_set_no": 999,
        "meta_rev_at_epoch": 521,
        "meta_bstar": -0.050219,
        "meta_mean_motion_dot": -0.02015016,
        "meta_mean_motion_ddot": 0,
        "tle_line1": "1 66389U 25257K   25338.75002315 -.02015016  00000+0 -50219-1 0  9991",
        "tle_line2": "2 66389  53.1599 302.0486 0001334  98.5313 159.7056 15.43187963  5217"
      },
      "geometry": {
        "type": "Point",
        "coordinates": [
          -175.2942856935073,
          -50.355624095494626
        ]
      }
    },
    {
      "type": "Feature",
      "properties": {
        "norad_id": 66390,
        "name": "STARLINK-35665",
        "group": "last-30-days",
        "lat": -34.178285674645196,
        "lon": -90.82396563527949,
        "alt_km": 422.915897269223,
        "timestamp": "2025-12-05T04:52:14.140955+00:00",
        "meta_object_name": "STARLINK-35665",
        "meta_object_id": "2025-257L",
        "meta_epoch": "2025-12-04T15:07:48.539424",
        "meta_mean_motion": 15.49357903,
        "meta_eccentricity": 0.0002131,
        "meta_inclination": 53.1592,
        "meta_ra_of_asc_node": 302.5195,
        "meta_arg_of_pericenter": 81.2033,
        "meta_mean_anomaly": 278.9217,
        "meta_ephemeris_type": 0,
        "meta_classification_type": "U",
        "meta_norad_cat_id": 66390,
        "meta_element_set_no": 999,
        "meta_rev_at_epoch": 522,
        "meta_bstar": 0.0034253,
        "meta_mean_motion_dot": 0.00195224,
        "meta_mean_motion_ddot": 0,
        "tle_line1": "1 66390U 25257L   25338.63042291  .00195224  00000+0  34253-2 0  9994",
        "tle_line2": "2 66390  53.1592 302.5195 0002131  81.2033 278.9217 15.49357903  5221"
      },
      "geometry": {
        "type": "Point",
        "coordinates": [
          -90.82396563527949,
          -34.178285674645196
        ]
      }
    },
    {
      "type": "Feature",
      "properties": {
        "norad_id": 66391,
        "name": "STARLINK-35656",
        "group": "last-30-days",
        "lat": -50.04994243455701,
        "lon": -176.59134554443156,
        "alt_km": 452.7739045628887,
        "timestamp": "2025-12-05T04:52:14.140964+00:00",
        "meta_object_name": "STARLINK-35656",
        "meta_object_id": "2025-257M",
        "meta_epoch": "2025-12-04T18:00:02.000160",
        "meta_mean_motion": 15.39574833,
        "meta_eccentricity": 0.0001164,
        "meta_inclination": 53.1603,
        "meta_ra_of_asc_node": 302.0283,
        "meta_arg_of_pericenter": 106.488,
        "meta_mean_anomaly": 155.1336,
        "meta_ephemeris_type": 0,
        "meta_classification_type": "U",
        "meta_norad_cat_id": 66391,
        "meta_element_set_no": 999,
        "meta_rev_at_epoch": 531,
        "meta_bstar": -7.8964e-05,
        "meta_mean_motion_dot": -3.551e-05,
        "meta_mean_motion_ddot": 0,
        "tle_line1": "1 66391U 25257M   25338.75002315 -.00003551  00000+0 -78964-4 0  9993",
        "tle_line2": "2 66391  53.1603 302.0283 0001164 106.4880 155.1336 15.39574833  5313"
      },
      "geometry": {
        "type": "Point",
        "coordinates": [
          -176.59134554443156,
          -50.04994243455701
        ]
      }
    },
    {
      "type": "Feature",
      "properties": {
        "norad_id": 66392,
        "name": "STARLINK-35671",
        "group": "last-30-days",
        "lat": -37.44502785878176,
        "lon": 154.99310302927267,
        "alt_km": 452.3989638173971,
        "timestamp": "2025-12-05T04:52:14.140973+00:00",
        "meta_object_name": "STARLINK-35671",
        "meta_object_id": "2025-257N",
        "meta_epoch": "2025-12-04T18:00:02.000160",
        "meta_mean_motion": 15.39580561,
        "meta_eccentricity": 0.0001903,
        "meta_inclination": 53.1604,
        "meta_ra_of_asc_node": 302.0892,
        "meta_arg_of_pericenter": 96.4539,
        "meta_mean_anomaly": 141.1844,
        "meta_ephemeris_type": 0,
        "meta_classification_type": "U",
        "meta_norad_cat_id": 66392,
        "meta_element_set_no": 999,
        "meta_rev_at_epoch": 521,
        "meta_bstar": 0.00065799,
        "meta_mean_motion_dot": 0.00025975,
        "meta_mean_motion_ddot": 0,
        "tle_line1": "1 66392U 25257N   25338.75002315  .00025975  00000+0  65799-3 0  9997",
        "tle_line2": "2 66392  53.1604 302.0892 0001903  96.4539 141.1844 15.39580561  5214"
      },
      "geometry": {
        "type": "Point",
        "coordinates": [
          154.99310302927267,
          -37.44502785878176
        ]
      }
    },
    {
      "type": "Feature",
      "properties": {
        "norad_id": 66393,
        "name": "STARLINK-35652",
        "group": "last-30-days",
        "lat": -53.117854310075934,
        "lon": -147.8229538944996,
        "alt_km": 439.8078256158615,
        "timestamp": "2025-12-05T04:52:14.140983+00:00",
        "meta_object_name": "STARLINK-35652",
        "meta_object_id": "2025-257P",
        "meta_epoch": "2025-12-04T18:00:02.000160",
        "meta_mean_motion": 15.46041181,
        "meta_eccentricity": 0.0001164,
        "meta_inclination": 53.1597,
        "meta_ra_of_asc_node": 302.0234,
        "meta_arg_of_pericenter": 111.5412,
        "meta_mean_anomaly": 159.2274,
        "meta_ephemeris_type": 0,
        "meta_classification_type": "U",
        "meta_norad_cat_id": 66393,
        "meta_element_set_no": 999,
        "meta_rev_at_epoch": 521,
        "meta_bstar": -0.045841,
        "meta_mean_motion_dot": -0.02027223,
        "meta_mean_motion_ddot": 0,
        "tle_line1": "1 66393U 25257P   25338.75002315 -.02027223  00000+0 -45841-1 0  9994",
        "tle_line2": "2 66393  53.1597 302.0234 0001164 111.5412 159.2274 15.46041181  5219"
      },
      "geometry": {
        "type": "Point",
        "coordinates": [
          -147.8229538944996,
          -53.117854310075934
        ]
      }
    }
  ]
}